[{"OBJECT_NAME":"KUIPER-00210","OBJECT_ID":"2025-301P","EPOCH":"2026-03-09T22:00:01.999584","MEAN_MOTION":14.81753192,"ECCENTRICITY":0.00020451,"INCLINATION":51.899,"RA_OF_ASC_NODE":72.1231,"ARG_OF_PERICENTER":117.4503,"MEAN_ANOMALY":206.8766,"EPHEMERIS_TYPE":0,"CLASSIFICATION_TYPE":"U","NORAD_CAT_ID":67146,"ELEMENT_SET_NO":999,"REV_AT_EPOCH":580,"BSTAR":0.0025283371,"MEAN_MOTION_DOT":0.00019966,"MEAN_MOTION_DDOT":0},{"OBJECT_NAME":"GP-B","OBJECT_ID":"2004-014A","EPOCH":"2026-03-09T22:06:31.153824","MEAN_MOTION":14.83118135,"ECCENTRICITY":0.00020492,"INCLINATION":89.8435,"RA_OF_ASC_NODE":52.0728,"ARG_OF_PERICENTER":83.1375,"MEAN_ANOMALY":277.0084,"EPHEMERIS_TYPE":0,"CLASSIFICATION_TYPE":"U","NORAD_CAT_ID":28230,"ELEMENT_SET_NO":999,"REV_AT_EPOCH":63763,"BSTAR":0.00015953029,"MEAN_MOTION_DOT":1.315e-5,"MEAN_MOTION_DDOT":0}]
